LUR-1                   
1 60506U 24149AQ  26159.21854056  .00006235  00000+0  21738-3 0  9990
2 60506  97.3734 238.1127 0003556 359.7970   0.3269 15.29989615100607
TANAGER-1               
1 60507U 24149AR  26158.76775654  .00002151  00000+0  47642-4 0  9992
2 60507  97.2756 253.0152 0003669 344.5643  15.5494 15.44911540101584
EAGLEEYE                
1 60508U 24149AS  26159.24771192  .00075335  00000+0  64228-3 0  9992
2 60508  97.3718 252.1026 0003293 261.6116  98.4773 15.69305709101537
FLOCK 4BE-29            
1 60509U 24149AT  26159.23635525  .00014801  00000+0  32811-3 0  9995
2 60509  97.3802 244.9763 0001774 353.4629   6.6595 15.43850844101035
TRANSPORTER-11 OBJECT AU
1 60510U 24149AU  26159.22160704  .00012670  00000+0  31978-3 0  9993
2 60510  97.3725 242.8725 0002626 339.5629  20.5512 15.39973796100937
FLOCK 4BE-2             
1 60511U 24149AV  26159.22738689  .00043547  00000+0  72883-3 0  9994
2 60511  97.3832 246.2727 0002385 293.7598  66.3404 15.51757282101118
FLOCK 4BE-13            
1 60512U 24149AW  26159.19936122  .00012505  00000+0  29872-3 0  9993
2 60512  97.3717 243.5194 0002764 307.4919  52.6076 15.41647861100987
FLOCK 4BE-27            
1 60513U 24149AX  26159.19473171  .00007732  00000+0  23526-3 0  9990
2 60513  97.3822 241.0430 0003244 358.8051   1.3184 15.34291308100762
FLOCK 4BE-9             
1 60514U 24149AY  26159.19205236  .00012881  00000+0  31924-3 0  9998
2 60514  97.3787 243.3783 0001872 355.0906   5.0322 15.40526252100932
FLOCK 4BE-6             
1 60516U 24149BA  26159.21377691  .00012067  00000+0  31111-3 0  9992
2 60516  97.3784 242.7756 0002467 347.8970  12.2216 15.39334821100899
FLOCK 4BE-14            
1 60517U 24149BB  26159.20564833  .00013576  00000+0  33421-3 0  9990
2 60517  97.3692 242.8960 0003284 339.2347  20.8765 15.40714750100942
FLOCK 4BE-1             
1 60518U 24149BC  26159.23089339  .00015278  00000+0  35647-3 0  9990
2 60518  97.3773 244.1666 0003003 337.4371  22.6743 15.42310764100997
FLOCK 4BE-28            
1 60519U 24149BD  26159.19366617  .00016560  00000+0  35765-3 0  9999
2 60519  97.3745 244.8256 0003245 333.0746  27.0334 15.44596622101059
IPERDRONE.0             
1 60520U 24149BE  26159.23293348  .00061186  00000+0  61258-3 0  9996
2 60520  97.3780 252.0123 0002809 249.8113 110.2844 15.65371231101513
TRANSPORTER-11 OBJECT BF
1 60521U 24149BF  26159.21469498  .00180048  00000+0  91905-3 0  9997
2 60521  97.3753 254.4864 0005058 245.7237 114.3503 15.80859274101661
CONNECTA IOT-2          
1 60522U 24149BG  26159.18444829  .00004308  00000+0  18124-3 0  9991
2 60522  97.3836 237.4670 0006426  11.7021 348.4365 15.23899576100528
PTD-R (TYVAK-0127)      
1 60523U 24149BH  26159.25216887  .01138763  79382-3  12951-2 0  9999
2 60523  97.3904 259.3301 0009114 266.9962  93.0278 16.09279285102009
CONNECTA IOT-4          
1 60524U 24149BJ  26159.18707776  .00017077  00000+0  40456-3 0  9996
2 60524  97.3793 243.4531 0004189 329.0849  31.0151 15.41821685100942
ORESAT0.5               
1 60525U 24149BK  26159.17984018  .00016057  00000+0  34512-3 0  9995
2 60525  97.3720 245.0449 0004211 315.9491  44.1422 15.44742533101081
DEIMOS                  
1 60526U 24149BL  26159.20712069  .00015747  00000+0  34820-3 0  9992
2 60526  97.3779 245.2172 0004210 325.0298  35.0673 15.43905498101062
CUAVA-2                 
1 60527U 24149BM  26159.22334078  .00010165  00000+0  29294-3 0  9993
2 60527  97.3722 240.7290 0005667 334.6542  25.4423 15.35912393100795
ERNST                   
1 60528U 24149BN  26159.19764949  .00011521  00000+0  30059-3 0  9992
2 60528  97.3804 242.8516 0004944 339.9803  20.1247 15.38970384100890
TORO                    
1 60530U 24149BQ  26159.14569591  .00002248  00000+0  20351-3 0  9996
2 60530  97.6778 233.9823 0001570  90.9664 269.1738 14.96388153 98604
HYPSO-2                 
1 60531U 24149BR  26159.18771589  .00001963  00000+0  16790-3 0  9998
2 60531  97.6823 235.5810 0001604  48.9828 311.1533 14.98753542 98705
LEMU NGE                
1 60532U 24149BS  26159.14908783  .00002669  00000+0  24975-3 0  9991
2 60532  97.6836 234.2914 0002489  79.5600 280.5901 14.94915590 98607
LEMUR-2-STELLA          
1 60533U 24149BT  26159.21207591  .00009115  00000+0  54014-3 0  9999
2 60533  97.6732 241.6294 0001966  99.1230 261.0223 15.11615669 99147
SATELIOT_2              
1 60534U 24149BU  26159.19933176  .00001835  00000+0  16730-3 0  9996
2 60534  97.6818 234.3196 0001662 103.0472 257.0935 14.96326111 98629
NIGHTJAR                
1 60535U 24149BV  26159.18054867  .00002462  00000+0  20815-3 0  9993
2 60535  97.6863 236.0128 0002325  88.1210 272.0279 14.98979490141526
LEMUR-2-MARHISYAM       
1 60536U 24149BW  26159.18916538  .00009562  00000+0  57494-3 0  9997
2 60536  97.6873 242.0463 0003012 135.4606 224.6866 15.11073553 99120
SATELIOT_4              
1 60537U 24149BX  26159.21202044  .00002211  00000+0  19899-3 0  9993
2 60537  97.6728 233.8653 0003431  81.3584 278.8026 14.96633883 98632
