OBJECT_NAME,OBJECT_ID,EPOCH,MEAN_MOTION,ECCENTRICITY,INCLINATION,RA_OF_ASC_NODE,ARG_OF_PERICENTER,MEAN_ANOMALY,EPHEMERIS_TYPE,CLASSIFICATION_TYPE,NORAD_CAT_ID,ELEMENT_SET_NO,REV_AT_EPOCH,BSTAR,MEAN_MOTION_DOT,MEAN_MOTION_DDOT
LUR-1,2024-149AQ,2026-06-08T05:14:41.904384,15.29989615,.00035569,97.3734,238.1127,359.7970,0.3269,0,U,60506,999,10060,.21737531E-3,.6235E-4,0
TANAGER-1,2024-149AR,2026-06-07T18:25:34.165056,15.44911540,.00036692,97.2756,253.0152,344.5643,15.5494,0,U,60507,999,10158,.47642216E-4,.2151E-4,0
EAGLEEYE,2024-149AS,2026-06-08T05:56:42.309888,15.69305709,.00032934,97.3718,252.1026,261.6116,98.4773,0,U,60508,999,10153,.6422805E-3,.75335E-3,0
FLOCK 4BE-29,2024-149AT,2026-06-08T05:40:21.093600,15.43850844,.00017745,97.3802,244.9763,353.4629,6.6595,0,U,60509,999,10103,.32810915E-3,.14801E-3,0
TRANSPORTER-11 OBJECT AU,2024-149AU,2026-06-08T05:19:06.848256,15.39973796,.00026264,97.3725,242.8725,339.5629,20.5512,0,U,60510,999,10093,.31978191E-3,.1267E-3,0
FLOCK 4BE-2,2024-149AV,2026-06-08T05:27:26.227296,15.51757282,.00023853,97.3832,246.2727,293.7598,66.3404,0,U,60511,999,10111,.72883114E-3,.43547E-3,0
FLOCK 4BE-13,2024-149AW,2026-06-08T04:47:04.809408,15.41647861,.00027648,97.3717,243.5194,307.4919,52.6076,0,U,60512,999,10098,.29872217E-3,.12505E-3,0
FLOCK 4BE-27,2024-149AX,2026-06-08T04:40:24.819744,15.34291308,.00032448,97.3822,241.0430,358.8051,1.3184,0,U,60513,999,10076,.23525796E-3,.7732E-4,0
FLOCK 4BE-9,2024-149AY,2026-06-08T04:36:33.323904,15.40526252,.00018728,97.3787,243.3783,355.0906,5.0322,0,U,60514,999,10093,.3192439E-3,.12881E-3,0
FLOCK 4BE-6,2024-149BA,2026-06-08T05:07:50.325024,15.39334821,.00024675,97.3784,242.7756,347.8970,12.2216,0,U,60516,999,10089,.3111072E-3,.12067E-3,0
FLOCK 4BE-14,2024-149BB,2026-06-08T04:56:08.015712,15.40714750,.00032841,97.3692,242.8960,339.2347,20.8765,0,U,60517,999,10094,.33421451E-3,.13576E-3,0
FLOCK 4BE-1,2024-149BC,2026-06-08T05:32:29.188896,15.42310764,.00030035,97.3773,244.1666,337.4371,22.6743,0,U,60518,999,10099,.35646889E-3,.15278E-3,0
FLOCK 4BE-28,2024-149BD,2026-06-08T04:38:52.757088,15.44596622,.00032456,97.3745,244.8256,333.0746,27.0334,0,U,60519,999,10105,.35764983E-3,.1656E-3,0
IPERDRONE.0,2024-149BE,2026-06-08T05:35:25.452672,15.65371231,.00028091,97.3780,252.0123,249.8113,110.2844,0,U,60520,999,10151,.61258155E-3,.61186E-3,0
TRANSPORTER-11 OBJECT BF,2024-149BF,2026-06-08T05:09:09.646272,15.80859274,.00050589,97.3753,254.4864,245.7237,114.3503,0,U,60521,999,10166,.91904832E-3,.180048E-2,0
CONNECTA IOT-2,2024-149BG,2026-06-08T04:25:36.332256,15.23899576,.00064268,97.3836,237.4670,11.7021,348.4365,0,U,60522,999,10052,.18124423E-3,.4308E-4,0
PTD-R (TYVAK-0127),2024-149BH,2026-06-08T06:03:07.390368,16.09279285,.0009114,97.3904,259.3301,266.9962,93.0278,0,U,60523,999,10200,.12950814E-2,.1138763E-1,.793819E-3
CONNECTA IOT-4,2024-149BJ,2026-06-08T04:29:23.518464,15.41821685,.00041893,97.3793,243.4531,329.0849,31.0151,0,U,60524,999,10094,.40456411E-3,.17077E-3,0
ORESAT0.5,2024-149BK,2026-06-08T04:18:58.191552,15.44742533,.00042118,97.3720,245.0449,315.9491,44.1422,0,U,60525,999,10108,.34512396E-3,.16057E-3,0
DEIMOS,2024-149BL,2026-06-08T04:58:15.227616,15.43905498,.00042104,97.3779,245.2172,325.0298,35.0673,0,U,60526,999,10106,.34820007E-3,.15747E-3,0
CUAVA-2,2024-149BM,2026-06-08T05:21:36.643392,15.35912393,.00056673,97.3722,240.7290,334.6542,25.4423,0,U,60527,999,10079,.29293652E-3,.10165E-3,0
ERNST,2024-149BN,2026-06-08T04:44:36.915936,15.38970384,.00049441,97.3804,242.8516,339.9803,20.1247,0,U,60528,999,10089,.30059467E-3,.11521E-3,0
TORO,2024-149BQ,2026-06-08T03:29:48.126624,14.96388153,.00015701,97.6778,233.9823,90.9664,269.1738,0,U,60530,999,9860,.20350897E-3,.2248E-4,0
HYPSO-2,2024-149BR,2026-06-08T04:30:18.652896,14.98753542,.00016041,97.6823,235.5810,48.9828,311.1533,0,U,60531,999,9870,.1678966E-3,.1963E-4,0
LEMU NGE,2024-149BS,2026-06-08T03:34:41.188512,14.94915590,.00024892,97.6836,234.2914,79.5600,280.5901,0,U,60532,999,9860,.24975017E-3,.2669E-4,0
LEMUR-2-STELLA,2024-149BT,2026-06-08T05:05:23.358624,15.11615669,.00019664,97.6732,241.6294,99.1230,261.0223,0,U,60533,999,9914,.5401368E-3,.9115E-4,0
SATELIOT_2,2024-149BU,2026-06-08T04:47:02.264064,14.96326111,.00016626,97.6818,234.3196,103.0472,257.0935,0,U,60534,999,9862,.16730241E-3,.1835E-4,0
NIGHTJAR,2024-149BV,2026-06-08T04:19:59.405088,14.98979490,.00023258,97.6863,236.0128,88.1210,272.0279,0,U,60535,999,14152,.20814648E-3,.2462E-4,0
LEMUR-2-MARHISYAM,2024-149BW,2026-06-08T04:32:23.888832,15.11073553,.00030128,97.6873,242.0463,135.4606,224.6866,0,U,60536,999,9912,.57494225E-3,.9562E-4,0
SATELIOT_4,2024-149BX,2026-06-08T05:05:18.566016,14.96633883,.00034311,97.6728,233.8653,81.3584,278.8026,0,U,60537,999,9863,.19898921E-3,.2211E-4,0
